#aV2015  9 14  0  0  0.00000000     288 DD+AD WGS84 FIT  NGA
## 1862  86400.00000000   300.00000000 57279 0.0000000000000
+   31     1  2  3  4  5  6  7  8  9 11 12 13 14 15 16 17 18
+         19 20 21 22 23 24 25 26 27 28 29 30 31 32  0  0  0
+          0  0  0  0  0  0  0  0  0  0  0  0  0  0  0  0  0
+          0  0  0  0  0  0  0  0  0  0  0  0  0  0  0  0  0
+          0  0  0  0  0  0  0  0  0  0  0  0  0  0  0  0  0
++         2  2  2  2  2  2  2  2  2  2  2  2  2  2  2  2  2
++         2  2  2  2  2  2  2  2  2  2  2  2  2  2  0  0  0
++         0  0  0  0  0  0  0  0  0  0  0  0  0  0  0  0  0
++         0  0  0  0  0  0  0  0  0  0  0  0  0  0  0  0  0
++         0  0  0  0  0  0  0  0  0  0  0  0  0  0  0  0  0
%c cc cc ccc ccc cccc cccc cccc cccc ccccc ccccc ccccc ccccc
%c cc cc ccc ccc cccc cccc cccc cccc ccccc ccccc ccccc ccccc
%f  0.0000000  0.000000000  0.00000000000  0.000000000000000
%f  0.0000000  0.000000000  0.00000000000  0.000000000000000
%i    0    0    0    0      0      0      0      0         0
%i    0    0    0    0      0      0      0      0         0
/*      NGA, ST. LOUIS,MO.                                  
/*   EPHEMERIS COMPUTED FROM  1 DAYS OF DATA                
/*   EPOCHA SMOOTHER                                       
/* CCCCCCCCCCCCCCCCCCCCCCCCCCCCCCCCCCCCCCCCCCCCCCCCCCCCCCCCC
*  2015  9 14  8  0  0.00000000
P  1 -19218.606886 -13598.791454 -12559.304680      0.464545                    
V  1  15812.720954   1643.097364 -25920.165531      0.006861                    
P  2  -3666.347721  15386.172576  21710.770525    588.812277                    
V  2 -26191.789583  -5473.369778   -991.522526      0.016451                    
P  3 -13397.158765 -20780.019942   9678.824314     20.901001                    
V  3  -1106.560491 -12505.160784 -28430.974563      0.007387                    
P  4 -10516.756276 -16192.317934 -18693.591145    -20.471015                    
V  4  22812.603564   3324.758551 -15753.055404     -0.042191                    
P  5    747.191316  24750.402114   9281.402465   -195.670169                    
V  5  -6536.254154 -10475.698462  28477.465636      0.040573                    
P  6 -16575.610940   9387.571850  18502.392222     57.732289                    
V  6 -22564.698800  -6715.264653 -16811.265637      0.073684                    
P  7 -26080.772344  -5917.463026  -1195.045590    484.812510                    
V  7  -1034.137571  -2567.390275  31632.094428     -0.002290                    
P  8  -2388.964780 -17656.857424 -19656.980162     -5.204977                    
V  8  17929.541376 -17542.227050  13533.433520     -0.012689                    
P  9 -18722.542895    662.049366  18829.683267     -9.437975                    
V  9  15184.207346 -18550.084810  15729.187868      0.015848                    
P 11 -15480.824769 -12694.061958 -18046.266264   -604.102833                    
V 11  21627.138995  -5010.875779 -15410.188265     -0.022974                    
P 12  10838.592747  23185.729591   7391.716029    327.961284                    
V 12    735.361660   9558.626245 -30419.400509      0.034363                    
P 13  -8600.965732  20524.047790 -14714.939749   -149.002161                    
V 13 -15086.069530  10646.360119  23773.373270     -0.030228                    
P 14  21589.056442 -13838.305876  -6347.331612     34.852068                    
V 14  -4360.921665   7704.625447 -30568.369441     -0.026187                    
P 15   4364.774061  17386.587674 -19595.825331   -271.494962                    
V 15 -17285.654197  17967.240264  12480.563949     -0.020550                    
P 16    879.197820 -24461.138037   9749.350924    -86.749571                    
V 16   4762.361431  11808.997081  29313.888468      0.039603                    
P 17 -20920.583145  15027.372322  -5693.124890   -187.640160                    
V 17   3679.600647  -7184.057974 -31060.573308     -0.012456                    
P 18  16909.107737   4062.511403 -19637.853946    433.908626                    
V 18   6934.511455  25214.465504  10626.903401      0.032769                    
P 19  -8206.551063 -12830.312951 -21970.248452   -520.062421                    
V 19  20743.275017 -17816.258789   3109.433695     -0.005994                    
P 20  13407.704604  22129.289423  -5955.430877    355.150183                    
V 20   -830.918536   8294.258987  29789.558365      0.030596                    
P 21  26253.978416   3091.701621  -3294.271294   -479.588907                    
V 21   4200.946698   4361.955676  30586.967779     -0.028017                    
P 22  12628.492567 -10933.085107 -20382.745733    391.187446                    
V 22   9358.567543  24926.977824  -7660.213393      0.035993                    
P 23 -10059.860761 -11984.419758  21606.624987   -133.114913                    
V 23  18887.289324 -19466.094212  -2452.406398     -0.022175                    
P 24  17007.481135  14325.353946 -14673.900334     -4.663093                    
V 24 -18576.608996  -1766.836301 -23154.189694     -0.006878                    
P 25  15863.910181  12692.440339  17094.033016    -38.539783                    
V 25   5037.584548  21248.663158 -20173.809401     -0.051345                    
P 26   7142.750027 -18563.639382  17594.729001    -52.488980                    
V 26   8177.383373  20868.808944  18699.562019     -0.108693                    
P 27   9141.684863 -21866.404779 -11892.578068     19.580444                    
V 27  11919.856083  -9525.140454  26852.885462      0.029563                    
P 28 -13190.738575   6055.911554 -21617.869043    467.449510                    
V 28  -6675.448251 -28110.601349  -3775.929432      0.026733                    
P 29  17192.449955   2430.024437  20100.203250    634.079157                    
V 29 -17700.448051  18337.576480  12967.566744      0.023046                    
P 30 -23737.570467   1447.567021 -11915.215208     24.200668                    
V 30 -13697.863385  -6830.844267  26380.346349      0.066337                    
P 31  16447.370532  -9005.879423  19071.236485    302.910468                    
V 31  22722.425390   7125.575847 -16012.642110     -0.013852                    
P 32  -4770.993322 -26400.677674  -1330.490981    -43.866611                    
V 32   3050.742547    987.024791 -31042.064900      0.110598                    
EOF
